{
  "norad_id": 48386,
  "name": "STARLINK-2606",
  "history": [
    {
      "epoch": "2026-04-15T11:46:59.296512Z",
      "apogee_km": 471.68250103272385,
      "perigee_km": 469.86028046628144,
      "latitude_deg": -2.263915228082717e-06,
      "longitude_deg": 154.15895709062002,
      "height_km": 471.7628204318707,
      "semi_major_axis_km": 6848.908390749502,
      "eccentricity": 0.00013303,
      "inclination_deg": 53.1591,
      "raan_deg": 174.5583,
      "arg_perigee_deg": 95.8551,
      "mean_anomaly_deg": 264.2602,
      "mean_motion_rev_day": 15.31689468
    },
    {
      "epoch": "2026-04-16T20:40:10.396416Z",
      "apogee_km": 471.7029586066192,
      "perigee_km": 469.7660977384521,
      "latitude_deg": 7.936629711897789e-06,
      "longitude_deg": 13.132520598170595,
      "height_km": 471.7654424154448,
      "semi_major_axis_km": 6848.871528172535,
      "eccentricity": 0.0001414,
      "inclination_deg": 53.1588,
      "raan_deg": 168.1787,
      "arg_perigee_deg": 97.8678,
      "mean_anomaly_deg": 262.2484,
      "mean_motion_rev_day": 15.31701834
    },
    {
      "epoch": "2026-04-17T10:45:48.898368Z",
      "apogee_km": 471.5290708224147,
      "perigee_km": 469.8930180015668,
      "latitude_deg": -1.3269492041119657e-05,
      "longitude_deg": 158.40935960377635,
      "height_km": 471.58651232882215,
      "semi_major_axis_km": 6848.8480444119905,
      "eccentricity": 0.00011944,
      "inclination_deg": 53.1584,
      "raan_deg": 165.4448,
      "arg_perigee_deg": 88.3797,
      "mean_anomaly_deg": 271.7341,
      "mean_motion_rev_day": 15.31709712
    },
    {
      "epoch": "2026-04-19T12:52:30.554400Z",
      "apogee_km": 471.4406069275501,
      "perigee_km": 469.79594683536016,
      "latitude_deg": 1.614572889028446e-05,
      "longitude_deg": 114.95650557819296,
      "height_km": 471.47830077352734,
      "semi_major_axis_km": 6848.755276881455,
      "eccentricity": 0.00012007,
      "inclination_deg": 53.1584,
      "raan_deg": 155.7235,
      "arg_perigee_deg": 87.3113,
      "mean_anomaly_deg": 272.8026,
      "mean_motion_rev_day": 15.31740833
    },
    {
      "epoch": "2026-04-20T09:13:59.966976Z",
      "apogee_km": 471.24453031212124,
      "perigee_km": 470.08721960231014,
      "latitude_deg": 1.2877992192607987e-06,
      "longitude_deg": 164.79816033446417,
      "height_km": 471.7695304119421,
      "semi_major_axis_km": 6848.802874957215,
      "eccentricity": 8.449e-05,
      "inclination_deg": 53.1583,
      "raan_deg": 151.7738,
      "arg_perigee_deg": 110.699,
      "mean_anomaly_deg": 249.4102,
      "mean_motion_rev_day": 15.31724865
    },
    {
      "epoch": "2026-04-21T19:41:08.200320Z",
      "apogee_km": 471.7986524715634,
      "perigee_km": 469.66591457667346,
      "latitude_deg": -3.0220254045814454e-05,
      "longitude_deg": -0.08547739976218557,
      "height_km": 471.7674897105478,
      "semi_major_axis_km": 6848.869283524118,
      "eccentricity": 0.0001557,
      "inclination_deg": 53.1614,
      "raan_deg": 145.0894,
      "arg_perigee_deg": 97.3691,
      "mean_anomaly_deg": 262.7487,
      "mean_motion_rev_day": 15.31702587
    },
    {
      "epoch": "2026-04-22T19:10:33.341664Z",
      "apogee_km": 471.68068947276606,
      "perigee_km": 469.8355971211613,
      "latitude_deg": 6.561892969874473e-05,
      "longitude_deg": 2.0397229480455366,
      "height_km": 471.7887837880061,
      "semi_major_axis_km": 6848.895143296963,
      "eccentricity": 0.0001347,
      "inclination_deg": 53.1609,
      "raan_deg": 140.534,
      "arg_perigee_deg": 98.2253,
      "mean_anomaly_deg": 261.8902,
      "mean_motion_rev_day": 15.31693912
    },
    {
      "epoch": "2026-04-23T09:16:11.733024Z",
      "apogee_km": 471.5358357257737,
      "perigee_km": 469.9256669174383,
      "latitude_deg": -2.5056264106021795e-06,
      "longitude_deg": 147.31828710569118,
      "height_km": 471.606618994581,
      "semi_major_axis_km": 6848.867751321606,
      "eccentricity": 0.00011755,
      "inclination_deg": 53.1611,
      "raan_deg": 137.8014,
      "arg_perigee_deg": 88.3599,
      "mean_anomaly_deg": 271.7537,
      "mean_motion_rev_day": 15.31703101
    }
  ]
}